******************************************************************************* Revised : Jul 31, 2013                  Sun                                 10 PHYSICAL PROPERTIES (revised Jan 16, 2014):  GM (10^11 km^3/s^2)   = 1.3271244004193938  Mass (10^30 kg)   ~ 1.988544  Radius (photosphere)  = 6.963(10^5) km  Angular diam at 1 AU  = 1919.3"  Solar Radius (IAU)    = 6.955(10^5) km  Mean density          = 1.408 g/cm^3  Surface gravity       =  274.0 m/s^2    Moment of inertia     = 0.059  Escape velocity       =  617.7 km/s     Adopted sidereal per  = 25.38 d  Pole (RA,DEC in deg.) =  286.13,63.87   Obliquity to ecliptic = 7 deg 15'          Solar constant (1 AU) = 1367.6 W/m^2    Solar lumin.(erg/s)   =  3.846(10^33)  Mass-energy conv rate = 4.3(10^12 gm/s) Effective temp (K)    =  5778  Surf. temp (photosphr)= 6600 K (bottom) Surf. temp (photosphr)=  4400 K (top)  Photospheric depth    = ~400 km         Chromospheric depth   = ~2500 km  Sunspot cycle         = 11.4 yr         Cycle 22 sunspot min. =  1991 A.D.  Motn. rel to nrby strs= apex : RA=271 deg; DEC=+30 deg                          speed: 19.4 km/s = 0.0112 AU/day  Motn. rel to 2.73K BB = apex : l=264.7+-0.8; b=48.2+-0.5                          speed: 369 +-11 km/s*******************************************************************************  *******************************************************************************Ephemeris / WWW_USER Thu Sep 14 02:42:46 2017 Pasadena, USA      / Horizons    *******************************************************************************Target body name: Sun (10)                        {source: DE431mx}Center body name: Moon (301)                      {source: DE431mx}Center-site name: (user defined site below)*******************************************************************************Start time      : A.D. 1969-Jan-01 00:00:00.0000 UT      Stop  time      : A.D. 1977-Dec-31 00:00:00.0000 UT      Step-size       : 5 minutes*******************************************************************************Target pole/equ : IAU_SUN                         {East-longitude +}Target radii    : 696000.0 x 696000.0 x 696000.0 k{Equator, meridian, pole}    Center geodetic : 15.4964900,-8.9757700,4.006E-13 {E-lon(deg),Lat(deg),Alt(km)}Center cylindric: 15.4964900,1716.12451,-271.0635 {E-lon(deg),Dxy(km),Dz(km)}Center pole/equ : IAU_MOON                        {East-longitude +}Center radii    : 1737.4 x 1737.4 x 1737.4 km     {Equator, meridian, pole}    Target primary  : SunVis. interferer : EARTH (R_eq= 6378.137) km       {source: DE431mx}Rel. light bend : Sun, EARTH                      {source: DE431mx}Rel. lght bnd GM: 1.3271E+11, 3.9860E+05 km^3/s^2                              Atmos refraction: NO (AIRLESS)RA format       : HMSTime format     : BOTHRTS-only print  : TVH      RTS elevation   : 0. degreesEOP file        : eop.170913.p171205                                           EOP coverage    : DATA-BASED 1962-JAN-20 TO 2017-SEP-13. PREDICTS-> 2017-DEC-04Units conversion: 1 au= 149597870.700 km, c= 299792.458 km/s, 1 day= 86400.0 s ******************************************************************************* Date__(UT)__HR:MN Date_________JDUT     Azi_(a-appr)_Elev**********************************************************$$SOE 1969-Jan-02 08:10 2440223.840277778 *t  359.9612  82.6074 1969-Jan-09 19:14 2440231.301388889  s  268.4408  -0.2978 1969-Jan-24 12:03 2440246.002083333 *r   91.3779  -0.2364 1969-Jan-31 22:47 2440253.449305556 *t  359.8488  82.2771 1969-Feb-08 09:36 2440260.900000000  s  268.8882  -0.2930 1969-Feb-23 02:30 2440275.604166667 *r   90.7656  -0.2361 1969-Mar-02 12:49 2440283.034027778 *t    0.0436  81.5903 1969-Mar-09 23:18 2440290.470833333  s  269.6386  -0.3051 1969-Mar-24 16:12 2440305.175000000 *r   89.9504  -0.2531 1969-Apr-01 02:06 2440312.587500000 *t  359.9271  80.7599 1969-Apr-08 12:00 2440320.000000000  s  270.4715  -0.2718 1969-Apr-23 04:59 2440334.707638889 *r   89.1682  -0.2556 1969-Apr-30 14:23 2440342.099305556 *t    0.0378  80.0251 1969-May-07 23:57 2440349.497916667  s  271.1375  -0.2974 1969-May-22 16:51 2440364.202083333 *r   88.6317  -0.2548 1969-May-30 01:55 2440371.579861111 *t    0.0279  79.5783 1969-Jun-06 11:09 2440378.964583333  s  271.4836  -0.2630 1969-Jun-21 04:03 2440393.668750000 *r   88.4695  -0.2404 1969-Jun-28 13:02 2440401.043055556 *t  359.8214  79.5255 1969-Jul-05 22:11 2440408.424305555  s  271.4138  -0.2833 1969-Jul-20 14:55 2440423.121527778 *r   88.7163  -0.2302 1969-Jul-27 23:59 2440430.499305556 *t  359.8100  79.8741 1969-Aug-04 09:18 2440437.887500000  s  270.9607  -0.2822 1969-Aug-19 01:52 2440452.577777778 *r   89.3100  -0.2360 1969-Aug-26 11:16 2440459.969444444 *t  359.7602  80.5366 1969-Sep-02 20:55 2440467.371527778  s  270.2331  -0.2770 1969-Sep-17 13:24 2440482.058333333 *r   90.0979  -0.2249 1969-Sep-24 23:13 2440489.467361111 *t  359.7822  81.3461 1969-Oct-02 09:22 2440496.890277778  s  269.4124  -0.2902 1969-Oct-17 01:46 2440511.573611111 *r   90.8798  -0.2401 1969-Oct-24 12:05 2440519.003472222 *t  359.8242  82.0854 1969-Oct-31 22:44 2440526.447222222  s  268.7252  -0.3081 1969-Nov-15 15:08 2440541.130555556 *r   91.4302  -0.2654 1969-Nov-23 01:52 2440548.577777778 *t  359.8948  82.5370 1969-Nov-30 12:46 2440556.031944444  s  268.3873  -0.2712 1969-Dec-15 05:25 2440570.725694444 *r   91.5709  -0.2691 1969-Dec-22 16:19 2440578.179861111 *t  359.9207  82.5530 1969-Dec-30 03:18 2440585.637500000  s  268.4986  -0.2794 1970-Jan-13 20:12 2440600.341666667 *r   91.2474  -0.2519 1970-Jan-21 06:56 2440607.788888889 *t  359.9968  82.1183 1970-Jan-28 17:45 2440615.239583333  s  269.0385  -0.2871 1970-Feb-12 10:49 2440629.950694445 *r   90.5643  -0.2689 1970-Feb-19 21:13 2440637.384027778 *t    0.0431  81.3664 1970-Feb-27 07:42 2440644.820833333  s  269.8362  -0.3103 1970-Mar-14 00:56 2440659.538888889 *r   89.7206  -0.2326 1970-Mar-21 10:45 2440666.947916667 *t    0.1351  80.5286 1970-Mar-28 20:44 2440674.363888889  s  270.6595  -0.2750 1970-Apr-12 14:03 2440689.085416667 *r   88.9794  -0.2371 1970-Apr-19 23:27 2440696.477083333 *t    0.0070  79.8461 1970-Apr-27 09:01 2440703.875694444  s  271.2603  -0.2883 1970-May-12 02:10 2440718.590277778 *r   88.5363  -0.2501 1970-May-19 11:19 2440725.971527778 *t  359.8338  79.4968 1970-May-26 20:33 2440733.356250000  s  271.4969  -0.2770 1970-Jun-10 13:32 2440748.063888889 *r   88.4896  -0.2274 1970-Jun-17 22:31 2440755.438194444 *t  359.7895  79.5589 1970-Jun-25 07:40 2440762.819444444  s  271.3176  -0.2659 1970-Jul-10 00:19 2440777.513194445 *r   88.8518  -0.2542 1970-Jul-17 09:28 2440784.894444444 *t  359.7070  80.0063 1970-Jul-24 18:47 2440792.282638889  s  270.7725  -0.2798 1970-Aug-08 11:06 2440806.962500000 *r   89.5171  -0.2611 1970-Aug-15 20:35 2440814.357638889 *t  359.6009  80.7232 1970-Aug-23 06:14 2440821.759722222  s  270.0040  -0.2904 1970-Sep-06 22:23 2440836.432638889 *r   90.3163  -0.2349 1970-Sep-14 08:12 2440843.841666667 *t  359.7338  81.5273 1970-Sep-21 18:21 2440851.264583333  s  269.2085  -0.2972 1970-Oct-06 10:25 2440865.934027778 *r   91.0515  -0.2519 1970-Oct-13 20:44 2440873.363888889 *t  359.7420  82.2029 1970-Oct-21 07:18 2440880.804166667  s  268.6046  -0.2896 1970-Nov-04 23:32 2440895.480555556 *r   91.5049  -0.2523 1970-Nov-12 10:11 2440902.924305555 *t  359.9395  82.5511 1970-Nov-19 21:05 2440910.378472222  s  268.3731  -0.2858 1970-Dec-04 13:39 2440925.068750000 *r   91.5317  -0.2451 1970-Dec-12 00:28 2440932.519444444 *t  359.9335  82.4528 1970-Dec-19 11:27 2440939.977083333  s  268.5969  -0.2992 1971-Jan-03 04:21 2440954.681250000 *r   91.1133  -0.2595 1971-Jan-10 15:05 2440962.128472222 *t    0.0223  81.9240 1971-Jan-18 01:54 2440969.579166667  s  269.2228  -0.2993 1971-Feb-01 19:13 2440984.300694444 *r   90.3625  -0.2296 1971-Feb-09 05:32 2440991.730555556 *t    0.1197  81.1237 1971-Feb-16 16:01 2440999.167361111  s  270.0573  -0.3049 1971-Mar-03 09:30 2441013.895833333 *r   89.5247  -0.2529 1971-Mar-10 19:24 2441021.308333333 *t    0.1273  80.2968 1971-Mar-18 05:23 2441028.724305556  s  270.8544  -0.2725 1971-Apr-01 22:57 2441043.456250000 *r   88.8390  -0.2566 1971-Apr-09 08:26 2441050.851388889 *t    0.0372  79.6830 1971-Apr-16 18:00 2441058.250000000  s  271.3780  -0.2713 1971-May-01 11:24 2441072.975000000 *r   88.4931  -0.2477 1971-May-08 20:33 2441080.356250000 *t  359.9878  79.4418 1971-May-16 05:52 2441087.744444444  s  271.5013  -0.2735 1971-May-30 22:56 2441102.455555555 *r   88.5657  -0.2328 1971-Jun-07 08:00 2441109.833333333 *t  359.7393  79.6207 1971-Jun-14 17:14 2441117.218055556  s  271.2053  -0.2965 1971-Jun-29 09:48 2441131.908333333 *r   89.0267  -0.2381 1971-Jul-06 18:57 2441139.289583333 *t  359.7250  80.1608 1971-Jul-14 04:21 2441146.681250000  s  270.5827  -0.3010 1971-Jul-28 20:30 2441161.354166667 *r   89.7479  -0.2339 1971-Aug-05 05:54 2441168.745833333 *t  359.7289  80.9202 1971-Aug-12 15:38 2441176.151388889  s  269.7921  -0.3036 1971-Aug-27 07:27 2441190.810416667 *r   90.5524  -0.2598 1971-Sep-03 17:16 2441198.219444444 *t  359.8268  81.7051 1971-Sep-11 03:25 2441205.642361111  s  269.0387  -0.2904 1971-Sep-25 19:14 2441220.301388889 *r   91.2209  -0.2467 1971-Oct-03 05:28 2441227.727777778 *t  359.8021  82.3064 1971-Oct-10 16:02 2441235.168055556  s  268.5214  -0.3036 1971-Oct-25 08:01 2441249.834027778 *r   91.5726  -0.2521 1971-Nov-01 18:35 2441257.274305556 *t  359.9582  82.5474 1971-Nov-09 05:24 2441264.725000000  s  268.4089  -0.2736 1971-Nov-23 21:53 2441279.411805556 *r   91.4855  -0.2428 1971-Dec-01 08:37 2441286.859027778 *t  359.9433  82.3398 1971-Dec-08 19:31 2441294.313194444  s  268.7403  -0.2874 1971-Dec-23 12:30 2441309.020833333 *r   90.9723  -0.2447 1971-Dec-30 23:09 2441316.464583333 *t    0.0428  81.7300 1972-Jan-07 09:53 2441323.911805556  s  269.4401  -0.2746 1972-Jan-22 03:22 2441338.640277778 *r   90.1806  -0.2535 1972-Jan-29 13:46 2441346.073611111 *t  359.9960  80.8987 1972-Feb-06 00:10 2441353.506944444  s  270.2908  -0.2856 1972-Feb-20 17:59 2441368.249305556 *r   89.3470  -0.2302 1972-Feb-28 03:53 2441375.661805556 *t    0.1208  80.1006 1972-Mar-06 13:57 2441383.081250000  s  271.0371  -0.3031 1972-Mar-21 07:46 2441397.823611111 *r   88.7285  -0.2297 1972-Mar-28 17:20 2441405.222222222 *t  359.8721  79.5695 1972-Apr-05 02:54 2441412.620833333  s  271.4724  -0.2787 1972-Apr-19 20:28 2441427.352777778 *r   88.4939  -0.2525 1972-Apr-27 05:47 2441434.740972222 *t  359.8149  79.4433 1972-May-04 15:06 2441442.129166667  s  271.4803  -0.2784 1972-May-19 08:15 2441456.843750000 *r   88.6794  -0.2245 1972-May-26 17:24 2441464.225000000 *t  359.7192  79.7378 1972-Jun-03 02:38 2441471.609722222  s  271.0818  -0.2746 1972-Jun-17 19:12 2441486.300000000 *r   89.2325  -0.2354 1972-Jun-25 04:26 2441493.684722222 *t  359.6827  80.3613 1972-Jul-02 13:50 2441501.076388889  s  270.3902  -0.2895 1972-Jul-17 05:49 2441515.742361111 *r   89.9982  -0.2517 1972-Jul-24 15:18 2441523.137500000 *t  359.7095  81.1491 1972-Aug-01 01:02 2441530.543055556  s  269.5893  -0.3011 1972-Aug-15 16:41 2441545.195138889 *r   90.7757  -0.2361 1972-Aug-23 02:30 2441552.604166667 *t  359.6498  81.9001 1972-Aug-30 12:34 2441560.023611111  s  268.8880  -0.2865 1972-Sep-14 04:08 2441574.672222222 *r   91.3734  -0.2595 1972-Sep-21 14:22 2441582.098611111 *t  359.6998  82.4163 1972-Sep-29 00:51 2441589.535416667  s  268.4671  -0.3074 1972-Oct-13 16:40 2441604.194444444 *r   91.6096  -0.2356 1972-Oct-21 03:09 2441611.631250000 *t  359.7925  82.5465 1972-Oct-28 13:53 2441619.078472222  s  268.4662  -0.2978 1972-Nov-12 06:12 2441633.758333333 *r   91.4129  -0.2503 1972-Nov-19 16:51 2441641.202083333 *t  359.9049  82.2346 1972-Nov-27 03:40 2441648.652777778  s  268.8998  -0.2944 1972-Dec-11 20:39 2441663.360416667 *r   90.8140  -0.2460 1972-Dec-19 07:13 2441670.800694444 *t    0.0292  81.5560 1972-Dec-26 17:57 2441678.247916667  s  269.6529  -0.3039 1973-Jan-10 11:31 2441692.979861111 *r   89.9880  -0.2504 1973-Jan-17 21:50 2441700.409722222 *t    0.1106  80.7100 1973-Jan-25 08:19 2441707.846527778  s  270.5033  -0.3112 1973-Feb-09 02:18 2441722.595833333 *r   89.1809  -0.2294 1973-Feb-16 12:17 2441730.011805556 *t  359.9349  79.9558 1973-Feb-23 22:16 2441737.427777778  s  271.1994  -0.2700 1973-Mar-10 16:20 2441752.180555556 *r   88.6450  -0.2524 1973-Mar-18 01:59 2441759.582638889 *t  359.9807  79.5174 1973-Mar-25 11:43 2441766.988194444  s  271.5233  -0.3015 1973-Apr-09 05:27 2441781.727083333 *r   88.5135  -0.2326 1973-Apr-16 14:51 2441789.118750000 *t  359.7829  79.5083 1973-Apr-24 00:15 2441796.510416667  s  271.4168  -0.2774 1973-May-08 17:24 2441811.225000000 *r   88.8178  -0.2607 1973-May-16 02:43 2441818.613194444 *t  359.7909  79.9119 1973-May-23 12:07 2441826.004861111  s  270.9136  -0.3009 1973-Jun-07 04:36 2441840.691666667 *r   89.4426  -0.2290 1973-Jun-14 13:55 2441848.079861111 *t  359.7038  80.6052 1973-Jun-21 23:24 2441855.475000000  s  270.1707  -0.2965 1973-Jul-06 15:13 2441870.134027778 *r   90.2346  -0.2594 1973-Jul-14 00:47 2441877.532638889 *t  359.6991  81.4040 1973-Jul-21 10:31 2441884.938194444  s  269.3784  -0.2936 1973-Aug-05 02:00 2441899.583333333 *r   90.9724  -0.2310 1973-Aug-12 11:49 2441906.992361111 *t  359.6522  82.1047 1973-Aug-19 21:53 2441914.411805556  s  268.7382  -0.3036 1973-Sep-03 13:17 2441929.053472222 *r   91.4761  -0.2254 1973-Sep-10 23:21 2441936.472916667 *t  359.8956  82.5241 1973-Sep-18 09:45 2441943.906250000  s  268.4283  -0.2833 1973-Oct-03 01:24 2441958.558333333 *r   91.6058  -0.2607 1973-Oct-10 11:48 2441965.991666667 *t  359.9242  82.5391 1973-Oct-17 22:27 2441973.435416667  s  268.5370  -0.2979 1973-Nov-01 14:41 2441988.111805555 *r   91.2948  -0.2465 1973-Nov-09 01:10 2441995.548611111 *t    0.0264  82.1270 1973-Nov-16 11:54 2442002.995833333  s  269.0607  -0.2940 1973-Dec-01 04:53 2442017.703472222 *r   90.6234  -0.2504 1973-Dec-08 15:22 2442025.140277778 *t  359.9442  81.3905 1973-Dec-16 01:56 2442032.580555555  s  269.8604  -0.2715 1973-Dec-30 19:40 2442047.319444444 *r   89.7785  -0.2539 1974-Jan-07 05:59 2442054.749305556 *t  359.9029  80.5438 1974-Jan-14 16:23 2442062.182638889  s  270.6882  -0.3097 1974-Jan-29 10:32 2442076.938888889 *r   89.0130  -0.2379 1974-Feb-05 20:31 2442084.354861111 *t  359.9543  79.8462 1974-Feb-13 06:35 2442091.774305556  s  271.3094  -0.2804 1974-Feb-28 00:49 2442106.534027778 *r   88.5657  -0.2576 1974-Mar-07 10:33 2442113.939583333 *t  359.9278  79.5067 1974-Mar-14 20:22 2442121.348611111  s  271.5260  -0.2971 1974-Mar-29 14:16 2442136.094444444 *r   88.5462  -0.2309 1974-Apr-05 23:45 2442143.489583333 *t  359.8263  79.6126 1974-Apr-13 09:19 2442150.888194445  s  271.3017  -0.2831 1974-Apr-28 02:33 2442165.606250000 *r   88.9532  -0.2475 1974-May-05 11:57 2442172.997916667 *t  359.8358  80.1144 1974-May-12 21:26 2442180.393055555  s  270.7144  -0.2662 1974-May-27 13:55 2442195.079861111 *r   89.6490  -0.2482 1974-Jun-03 23:24 2442202.475000000 *t  359.6659  80.8609 1974-Jun-11 08:58 2442209.873611111  s  269.9275  -0.2920 1974-Jun-26 00:42 2442224.529166667 *r   90.4441  -0.2477 1974-Jul-03 10:21 2442231.931250000 *t  359.6087  81.6516 1974-Jul-10 20:05 2442239.336805556  s  269.1592  -0.2839 1974-Jul-25 11:24 2442253.975000000 *r   91.1322  -0.2405 1974-Aug-01 21:13 2442261.384027778 *t  359.8083  82.2850 1974-Aug-09 07:17 2442268.803472222  s  268.5971  -0.2968 1974-Aug-23 22:31 2442283.438194444 *r   91.5356  -0.2263 1974-Aug-31 08:35 2442290.857638889 *t  359.7299  82.5965 1974-Sep-07 18:49 2442298.284027778  s  268.3994  -0.2700 1974-Sep-22 10:23 2442312.932638889 *r   91.5447  -0.2406 1974-Sep-29 20:37 2442320.359027778 *t    0.0129  82.4938 1974-Oct-07 07:06 2442327.795833333  s  268.6214  -0.2744 1974-Oct-21 23:15 2442342.468750000 *r   91.1378  -0.2674 1974-Oct-29 09:39 2442349.902083333 *t  359.9825  81.9868 1974-Nov-05 20:13 2442357.342361111  s  269.2226  -0.2901 1974-Nov-20 13:12 2442372.050000000 *r   90.4037  -0.2519 1974-Nov-27 23:31 2442379.479861111 *t    0.0709  81.2039 1974-Dec-05 10:05 2442386.920138889  s  270.0439  -0.3063 1974-Dec-20 03:49 2442401.659027778 *r   89.5580  -0.2604 1974-Dec-27 14:03 2442409.085416667 *t  359.9237  80.3702 1975-Jan-04 00:22 2442416.515277778  s  270.8490  -0.2828 1975-Jan-18 18:41 2442431.278472222 *r   88.8503  -0.2551 1975-Jan-26 04:40 2442438.694444444 *t  359.9729  79.7403 1975-Feb-02 14:49 2442446.117361111  s  271.3800  -0.2959 1975-Feb-17 09:13 2442460.884027778 *r   88.4969  -0.2419 1975-Feb-24 18:57 2442468.289583333 *t  359.9416  79.5044 1975-Mar-04 04:51 2442475.702083333  s  271.4893  -0.2786 1975-Mar-18 22:55 2442490.454861111 *r   88.5953  -0.2330 1975-Mar-26 08:29 2442497.853472222 *t  359.8481  79.7214 1975-Apr-02 18:13 2442505.259027778  s  271.1511  -0.2836 1975-Apr-17 11:32 2442519.980555556 *r   89.0993  -0.2375 1975-Apr-24 21:01 2442527.375694444 *t  359.8713  80.3099 1975-May-02 06:45 2442534.781250000  s  270.4806  -0.3026 1975-May-16 23:09 2442549.464583333 *r   89.8500  -0.2455 1975-May-24 08:43 2442556.863194444 *t  359.7490  81.0927 1975-May-31 18:27 2442564.268750000  s  269.6775  -0.2933 1975-Jun-15 10:06 2442578.920833333 *r   90.6384  -0.2451 1975-Jun-22 19:50 2442586.326388889 *t  359.5964  81.8578 1975-Jun-30 05:39 2442593.735416667  s  268.9494  -0.2880 1975-Jul-14 20:48 2442608.366666667 *r   91.2638  -0.2543 1975-Jul-22 06:42 2442615.779166667 *t  359.7190  82.4099 1975-Jul-29 16:41 2442623.195138889  s  268.4841  -0.2686 1975-Aug-13 07:50 2442637.826388889 *r   91.5592  -0.2230 1975-Aug-20 17:49 2442645.242361111 *t  359.8959  82.6068 1975-Aug-28 04:03 2442652.668750000  s  268.3950  -0.2925 1975-Sep-11 19:27 2442667.310416667 *r   91.4531  -0.2365 1975-Sep-19 05:36 2442674.733333333 *t  359.9279  82.3878 1975-Sep-26 15:55 2442682.163194444  s  268.7288  -0.2761 1975-Oct-11 07:59 2442696.832638889 *r   90.9541  -0.2650 1975-Oct-18 18:13 2442704.259027778 *t    0.0800  81.7952 1975-Oct-26 04:37 2442711.692361111  s  269.4026  -0.2768 1975-Nov-09 21:36 2442726.400000000 *r   90.1773  -0.2559 1975-Nov-17 07:50 2442733.826388889 *t  359.9357  80.9801 1975-Nov-24 18:09 2442741.256250000  s  270.2410  -0.2713 1975-Dec-09 12:03 2442756.002083333 *r   89.3436  -0.2395 1975-Dec-16 22:07 2442763.421527778 *t    0.0218  80.1749 1975-Dec-24 08:26 2442770.851388889  s  270.9925  -0.3013 1976-Jan-08 02:50 2442785.618055556 *r   88.7100  -0.2521 1976-Jan-15 12:49 2442793.034027778 *t  359.8787  79.6248 1976-Jan-22 22:58 2442800.456944444  s  271.4335  -0.3039 1976-Feb-06 17:27 2442815.227083333 *r   88.4677  -0.2618 1976-Feb-14 03:16 2442822.636111111 *t  359.9312  79.4978 1976-Feb-21 13:15 2442830.052083333  s  271.4316  -0.2729 1976-Mar-07 07:24 2442844.808333333 *r   88.6820  -0.2571 1976-Mar-14 17:08 2442852.213888889 *t  359.7707  79.8224 1976-Mar-22 03:02 2442859.626388889  s  270.9859  -0.3038 1976-Apr-05 20:21 2442874.347916667 *r   89.2754  -0.2512 1976-Apr-13 06:00 2442881.750000000 *t  359.8052  80.4868 1976-Apr-20 15:49 2442889.159027778  s  270.2604  -0.2691 1976-May-05 08:18 2442903.845833333 *r   90.0637  -0.2387 1976-May-12 17:57 2442911.247916667 *t  359.8070  81.2912 1976-May-20 03:51 2442918.660416667  s  269.4477  -0.2920 1976-Jun-03 19:25 2442933.309027778 *r   90.8347  -0.2617 1976-Jun-11 05:14 2442940.718055556 *t  359.7151  82.0165 1976-Jun-18 15:08 2442948.130555556  s  268.7799  -0.2644 1976-Jul-03 06:17 2442962.761805556 *r   91.3775  -0.2330 1976-Jul-10 16:11 2442970.174305555 *t  359.6753  82.4776 1976-Jul-18 02:10 2442977.590277778  s  268.4140  -0.2651 1976-Aug-01 17:09 2442992.214583333 *r   91.5719  -0.2582 1976-Aug-09 03:13 2442999.634027778 *t  359.7160  82.5575 1976-Aug-16 13:17 2443007.053472222  s  268.4481  -0.2654 1976-Aug-31 04:36 2443021.691666667 *r   91.3517  -0.2558 1976-Sep-07 14:40 2443029.111111111 *t    0.0408  82.2287 1976-Sep-15 00:54 2443036.537500000  s  268.8786  -0.2876 1976-Sep-29 16:53 2443051.203472222 *r   90.7673  -0.2568 1976-Oct-07 03:02 2443058.626388889 *t  359.8661  81.5642 1976-Oct-14 13:11 2443066.049305555  s  269.6132  -0.2676 1976-Oct-29 06:10 2443080.756944444 *r   89.9624  -0.2459 1976-Nov-05 16:14 2443088.176388889 *t  359.9974  80.7349 1976-Nov-13 02:28 2443095.602777778  s  270.4438  -0.2994 1976-Nov-27 20:17 2443110.345138889 *r   89.1662  -0.2590 1976-Dec-05 06:21 2443117.764583333 *t  359.8785  79.9756 1976-Dec-12 16:30 2443125.187500000  s  271.1417  -0.2943 1976-Dec-27 10:59 2443139.957638889 *r   88.6127  -0.2481 1977-Jan-03 20:53 2443147.370138889 *t    0.0292  79.5182 1977-Jan-11 07:02 2443154.793055556  s  271.4850  -0.2875 1977-Jan-26 01:41 2443169.570138889 *r   88.4805  -0.2415 1977-Feb-02 11:30 2443176.979166667 *t  359.9611  79.5051 1977-Feb-09 21:34 2443184.398611111  s  271.3673  -0.2768 1977-Feb-24 15:48 2443199.158333333 *r   88.8099  -0.2595 1977-Mar-04 01:37 2443206.567361111 *t  359.8565  79.9339 1977-Mar-11 11:41 2443213.986805555  s  270.8267  -0.3067 1977-Mar-26 05:05 2443228.711805556 *r   89.4811  -0.2415 1977-Apr-02 14:54 2443236.120833333 *t  359.6477  80.6638 1977-Apr-10 00:53 2443243.536805556  s  270.0475  -0.2974 1977-Apr-24 17:22 2443258.223611111 *r   90.2943  -0.2249 1977-May-02 03:11 2443265.632638889 *t  359.5791  81.4765 1977-May-09 13:10 2443273.048611111  s  269.2505  -0.2927 1977-May-24 04:44 2443287.697222222 *r   91.0301  -0.2555 1977-May-31 14:38 2443295.109722222 *t  359.6818  82.1499 1977-Jun-08 00:42 2443302.529166667  s  268.6470  -0.3028 1977-Jun-22 15:41 2443317.153472222 *r   91.4900  -0.2583 1977-Jun-30 01:40 2443324.569444444 *t  359.6431  82.5133 1977-Jul-07 11:44 2443331.988888889  s  268.3915  -0.2987 1977-Jul-22 02:38 2443346.609722222 *r   91.5628  -0.2385 1977-Jul-29 12:37 2443354.025694444 *t  359.7190  82.4776 1977-Aug-05 22:41 2443361.445138889  s  268.5447  -0.2931 1977-Aug-20 13:55 2443376.079861111 *r   91.2353  -0.2394 1977-Aug-27 23:54 2443383.495833333 *t  359.8509  82.0487 1977-Sep-04 09:58 2443390.915277778  s  269.0721  -0.2906 1977-Sep-19 01:57 2443405.581250000 *r   90.5783  -0.2241 1977-Sep-26 11:51 2443412.993750000 *t    0.0445  81.3285 1977-Oct-03 21:55 2443420.413194444  s  269.8477  -0.2785 1977-Oct-18 14:49 2443435.117361111 *r   89.7669  -0.2515 1977-Oct-26 00:48 2443442.533333333 *t  359.8981  80.5034 1977-Nov-02 10:52 2443449.952777778  s  270.6593  -0.3092 1977-Nov-17 04:41 2443464.695138889 *r   89.0132  -0.2332 1977-Nov-24 14:35 2443472.107638889 *t  359.9695  79.8071 1977-Dec-02 00:39 2443479.527083333  s  271.2853  -0.2929 1977-Dec-16 19:08 2443494.297222222 *r   88.5572  -0.2478 1977-Dec-24 05:02 2443501.709722222 *t  359.9859  79.4533$$EOE*******************************************************************************Column meaning: TIME  Prior to 1962, times are UT1. Dates thereafter are UTC. Any 'b' symbol inthe 1st-column denotes a B.C. date. First-column blank (" ") denotes an A.D.date. Calendar dates prior to 1582-Oct-15 are in the Julian calendar system.Later calendar dates are in the Gregorian system.  Time tags refer to the same instant throughout the solar system, regardlessof where the observer is located. For example, if an observation from thesurface of another body has an output time-tag of 12:31:00 UTC, an Earth-basedtime-scale, it refers to the instant on that body simultaneous to 12:31:00 UTCon Earth.  The Barycentric Dynamical Time scale (TDB) is used internally as defined bythe planetary equations of motion. Conversion between TDB and the selectednon-uniform UT output time-scale has not been determined for UTC times afterthe next July or January 1st. The last known leap-second is used as a constantover future intervals.  NOTE: "n.a." in output means quantity "not available" at the print-time. SOLAR PRESENCE (OBSERVING SITE)  Time tag is followed by a blank, then a solar-presence symbol:        '*'  Daylight (solar upper-limb on or above apparent horizon)        ' '  Night OR geocentric ephemerisINTEFERING BODY PRESENCE WITH TARGET RISE/TRANSIT/SET MARKER (OBSERVING SITE)  The solar-presence symbol is immediately followed by an "interfering body"presence OR target rise/transit/set symbol.        'x'  Upper-limb of interfering body on or above apparent horizon        ' '  Upper-limb of interfering body below apparent horizon OR body               centered ephemeris        'r'  Rise    (target body on or above cut-off RTS elevation)        't'  Transit (target body at or past local maximum RTS elevation)        's'  Set     (target body on or below cut-off RTS elevation)  An "interfering body" is the largest other body in the immediateplanet/satellite system, potentially compromising visual observations due toits brightness. Any such body is identified in the print-out header. RTS MARKERS (TVH)  Rise and set are with respect to the reference ellipsoid true visual horizondefined by the elevation cut-off angle. Horizon dip and yellow-light refraction(Earth only) are considered. Accuracy is < or = to twice the requested searchstep-size.  Azi_(a-appr)_Elev =   Airless apparent azimuth and elevation of target center. Adjusted forlight-time, the gravitational deflection of light, stellar aberration,precession and nutation. Azimuth measured North(0) -> East(90) -> South(180) ->West(270) -> North (360). Elevation is with respect to plane perpendicularto local zenith direction.  TOPOCENTRIC ONLY. Units: DEGREES Computations by ...     Solar System Dynamics Group, Horizons On-Line Ephemeris System     4800 Oak Grove Drive, Jet Propulsion Laboratory     Pasadena, CA  91109   USA     Information: http://ssd.jpl.nasa.gov/     Connect    : telnet://ssd.jpl.nasa.gov:6775  (via browser)                  telnet ssd.jpl.nasa.gov 6775    (via command-line)     Author     : Jon.D.Giorgini@jpl.nasa.gov*******************************************************************************